[{"OBJECT_NAME":"STARLINK-4266","OBJECT_ID":"2022-062AR","EPOCH":"2026-03-09T05:51:31.014144","MEAN_MOTION":15.08838822,"ECCENTRICITY":0.00015446,"INCLINATION":53.2193,"RA_OF_ASC_NODE":16.1209,"ARG_OF_PERICENTER":87.4045,"MEAN_ANOMALY":272.7124,"EPHEMERIS_TYPE":0,"CLASSIFICATION_TYPE":"U","NORAD_CAT_ID":52869,"ELEMENT_SET_NO":999,"REV_AT_EPOCH":20599,"BSTAR":7.250642e-6,"MEAN_MOTION_DOT":-1.73e-6,"MEAN_MOTION_DDOT":0},{"OBJECT_NAME":"BREEZE-M DEB","OBJECT_ID":"2006-006W","EPOCH":"2026-03-08T01:58:20.325216","MEAN_MOTION":5.1948956,"ECCENTRICITY":0.51027535,"INCLINATION":51.6456,"RA_OF_ASC_NODE":315.4848,"ARG_OF_PERICENTER":285.679,"MEAN_ANOMALY":25.4809,"EPHEMERIS_TYPE":0,"CLASSIFICATION_TYPE":"U","NORAD_CAT_ID":32043,"ELEMENT_SET_NO":999,"REV_AT_EPOCH":36069,"BSTAR":5.6380063e-5,"MEAN_MOTION_DOT":-3.3e-7,"MEAN_MOTION_DDOT":0}]
